{"type": "FeatureCollection", "features": [ {"type": "Feature", "properties": {"norad_id": 28659, "name": "DIRECTV 8", "group": "intelsat", "lat": 0.03830757613029107, "lon": 93.07336727253103, "alt_km": 35799.50853520895, "timestamp": "2025-12-08T08:59:00.439583+00:00", "meta": {"OBJECT_NAME": "DIRECTV 8", "OBJECT_ID": "2005-019A", "EPOCH": "2025-12-07T16:29:36.045600", "MEAN_MOTION": 1.00271412, "ECCENTRICITY": 0.00032344, "INCLINATION": 0.0172, "RA_OF_ASC_NODE": 353.7785, "ARG_OF_PERICENTER": 266.4818, "MEAN_ANOMALY": 304.7984, "EPHEMERIS_TYPE": 0, "CLASSIFICATION_TYPE": "U", "NORAD_CAT_ID": 28659, "ELEMENT_SET_NO": 999, "REV_AT_EPOCH": 7515, "BSTAR": 0, "MEAN_MOTION_DOT": 5e-08, "MEAN_MOTION_DDOT": 0}, "tle": {"line1": "1 28659U 05019A   25341.68722275  .00000005  00000+0  00000+0 0  9992", "line2": "2 28659   0.0172 353.7785 0003234 266.4818 304.7984  1.00271412 75158"}}, "geometry": {"type": "Point", "coordinates": [93.07336727253103, 0.03830757613029107]}}, {"type": "Feature", "properties": {"norad_id": 28702, "name": "GALAXY 28 (G-28)", "group": "intelsat", "lat": 1.8975022975306506, "lon": 123.39173092461303, "alt_km": 35793.89828937009, "timestamp": "2025-12-08T08:59:00.439595+00:00", "meta": {"OBJECT_NAME": "GALAXY 28 (G-28)", "OBJECT_ID": "2005-022A", "EPOCH": "2025-12-07T21:46:26.744736", "MEAN_MOTION": 1.00271436, "ECCENTRICITY": 0.00026502, "INCLINATION": 2.8063, "RA_OF_ASC_NODE": 81.3385, "ARG_OF_PERICENTER": 177.063, "MEAN_ANOMALY": 56.4479, "EPHEMERIS_TYPE": 0, "CLASSIFICATION_TYPE": "U", "NORAD_CAT_ID": 28702, "ELEMENT_SET_NO": 999, "REV_AT_EPOCH": 5005, "BSTAR": 0, "MEAN_MOTION_DOT": -1.85e-06, "MEAN_MOTION_DDOT": 0}, "tle": {"line1": "1 28702U 05022A   25341.90725399 -.00000185  00000+0  00000+0 0  9990", "line2": "2 28702   2.8063  81.3385 0002650 177.0630  56.4479  1.00271436 50054"}}, "geometry": {"type": "Point", "coordinates": [123.39173092461303, 1.8975022975306506]}}, {"type": "Feature", "properties": {"norad_id": 29236, "name": "GALAXY 16 (G-16)", "group": "intelsat", "lat": -0.005522136188293029, "lon": 113.10497364312091, "alt_km": 35797.32718431694, "timestamp": "2025-12-08T08:59:00.439607+00:00", "meta": {"OBJECT_NAME": "GALAXY 16 (G-16)", "OBJECT_ID": "2006-023A", "EPOCH": "2025-12-07T20:00:44.370432", "MEAN_MOTION": 1.00271142, "ECCENTRICITY": 0.00029877, "INCLINATION": 0.0026, "RA_OF_ASC_NODE": 109.0487, "ARG_OF_PERICENTER": 154.9453, "MEAN_ANOMALY": 14.0345, "EPHEMERIS_TYPE": 0, "CLASSIFICATION_TYPE": "U", "NORAD_CAT_ID": 29236, "ELEMENT_SET_NO": 999, "REV_AT_EPOCH": 7105, "BSTAR": 0, "MEAN_MOTION_DOT": -1.24e-06, "MEAN_MOTION_DDOT": 0}, "tle": {"line1": "1 29236U 06023A   25341.83384688 -.00000124  00000+0  00000+0 0  9992", "line2": "2 29236   0.0026 109.0487 0002987 154.9453  14.0345  1.00271142 71056"}}, "geometry": {"type": "Point", "coordinates": [113.10497364312091, -0.005522136188293029]}}, {"type": "Feature", "properties": {"norad_id": 29494, "name": "DIRECTV 9S", "group": "intelsat", "lat": 0.9135188533342119, "lon": 110.88466909055184, "alt_km": 35797.885658113184, "timestamp": "2025-12-08T08:59:00.439618+00:00", "meta": {"OBJECT_NAME": "DIRECTV 9S", "OBJECT_ID": "2006-043A", "EPOCH": "2025-12-07T21:42:49.592160", "MEAN_MOTION": 1.00270591, "ECCENTRICITY": 0.00032174, "INCLINATION": 1.9274, "RA_OF_ASC_NODE": 83.2575, "ARG_OF_PERICENTER": 175.8027, "MEAN_ANOMALY": 42.3545, "EPHEMERIS_TYPE": 0, "CLASSIFICATION_TYPE": "U", "NORAD_CAT_ID": 29494, "ELEMENT_SET_NO": 999, "REV_AT_EPOCH": 4946, "BSTAR": 0, "MEAN_MOTION_DOT": -1.11e-06, "MEAN_MOTION_DDOT": 0}, "tle": {"line1": "1 29494U 06043A   25341.90474065 -.00000111  00000+0  00000+0 0  9993", "line2": "2 29494   1.9274  83.2575 0003217 175.8027  42.3545  1.00270591 49467"}}, "geometry": {"type": "Point", "coordinates": [110.88466909055184, 0.9135188533342119]}}, {"type": "Feature", "properties": {"norad_id": 31307, "name": "GALAXY 17 (G-17)", "group": "intelsat", "lat": 1.765819604880863, "lon": 127.03339760828572, "alt_km": 35797.56958062724, "timestamp": "2025-12-08T08:59:00.439630+00:00", "meta": {"OBJECT_NAME": "GALAXY 17 (G-17)", "OBJECT_ID": "2007-016B", "EPOCH": "2025-12-07T20:04:43.987008", "MEAN_MOTION": 1.00270175, "ECCENTRICITY": 0.00060149, "INCLINATION": 2.4874, "RA_OF_ASC_NODE": 82.3394, "ARG_OF_PERICENTER": 160.7655, "MEAN_ANOMALY": 49.9245, "EPHEMERIS_TYPE": 0, "CLASSIFICATION_TYPE": "U", "NORAD_CAT_ID": 31307, "ELEMENT_SET_NO": 999, "REV_AT_EPOCH": 6788, "BSTAR": 0, "MEAN_MOTION_DOT": -2.04e-06, "MEAN_MOTION_DDOT": 0}, "tle": {"line1": "1 31307U 07016B   25341.83662022 -.00000204  00000+0  00000+0 0  9997", "line2": "2 31307   2.4874  82.3394 0006014 160.7655  49.9245  1.00270175 67886"}}, "geometry": {"type": "Point", "coordinates": [127.03339760828572, 1.765819604880863]}}, {"type": "Feature", "properties": {"norad_id": 31862, "name": "DIRECTV 10", "group": "intelsat", "lat": -0.0010493294470101985, "lon": 109.3358082723444, "alt_km": 35786.785753077675, "timestamp": "2025-12-08T08:59:00.439642+00:00", "meta": {"OBJECT_NAME": "DIRECTV 10", "OBJECT_ID": "2007-032A", "EPOCH": "2025-12-07T21:42:19.639872", "MEAN_MOTION": 1.00270272, "ECCENTRICITY": 4.621e-05, "INCLINATION": 0.0059, "RA_OF_ASC_NODE": 92.6501, "ARG_OF_PERICENTER": 114.4656, "MEAN_ANOMALY": 92.5999, "EPHEMERIS_TYPE": 0, "CLASSIFICATION_TYPE": "U", "NORAD_CAT_ID": 31862, "ELEMENT_SET_NO": 999, "REV_AT_EPOCH": 4367, "BSTAR": 0, "MEAN_MOTION_DOT": -1e-06, "MEAN_MOTION_DDOT": 0}, "tle": {"line1": "1 31862U 07032A   25341.90439398 -.00000100  00000+0  00000+0 0  9992", "line2": "2 31862   0.0059  92.6501 0000462 114.4656  92.5999  1.00270272 43672"}}, "geometry": {"type": "Point", "coordinates": [109.3358082723444, -0.0010493294470101985]}}, {"type": "Feature", "properties": {"norad_id": 32253, "name": "INTELSAT 11 (IS-11)", "group": "intelsat", "lat": 0.8653923171868906, "lon": 96.96040077771008, "alt_km": 36165.997923097566, "timestamp": "2025-12-08T08:59:00.439654+00:00", "meta": {"OBJECT_NAME": "INTELSAT 11 (IS-11)", "OBJECT_ID": "2007-044B", "EPOCH": "2025-12-07T21:39:12.438720", "MEAN_MOTION": 0.99047473, "ECCENTRICITY": 0.00091913, "INCLINATION": 3.0673, "RA_OF_ASC_NODE": 81.0279, "ARG_OF_PERICENTER": 163.8745, "MEAN_ANOMALY": 43.8037, "EPHEMERIS_TYPE": 0, "CLASSIFICATION_TYPE": "U", "NORAD_CAT_ID": 32253, "ELEMENT_SET_NO": 999, "REV_AT_EPOCH": 6655, "BSTAR": 0, "MEAN_MOTION_DOT": 6.2e-07, "MEAN_MOTION_DDOT": 0}, "tle": {"line1": "1 32253U 07044B   25341.90222730  .00000062  00000+0  00000+0 0  9996", "line2": "2 32253   3.0673  81.0279 0009191 163.8745  43.8037  0.99047473 66557"}}, "geometry": {"type": "Point", "coordinates": [96.96040077771008, 0.8653923171868906]}}, {"type": "Feature", "properties": {"norad_id": 32388, "name": "HORIZONS-2", "group": "intelsat", "lat": 1.7450312138783615, "lon": 138.28869677790692, "alt_km": 35799.96019340383, "timestamp": "2025-12-08T08:59:00.439666+00:00", "meta": {"OBJECT_NAME": "HORIZONS-2", "OBJECT_ID": "2007-063B", "EPOCH": "2025-12-07T20:07:58.677312", "MEAN_MOTION": 1.00270849, "ECCENTRICITY": 0.00050634, "INCLINATION": 2.1084, "RA_OF_ASC_NODE": 83.011, "ARG_OF_PERICENTER": 185.4181, "MEAN_ANOMALY": 36.6416, "EPHEMERIS_TYPE": 0, "CLASSIFICATION_TYPE": "U", "NORAD_CAT_ID": 32388, "ELEMENT_SET_NO": 999, "REV_AT_EPOCH": 6589, "BSTAR": 0, "MEAN_MOTION_DOT": -2.51e-06, "MEAN_MOTION_DDOT": 0}, "tle": {"line1": "1 32388U 07063B   25341.83887358 -.00000251  00000+0  00000+0 0  9992", "line2": "2 32388   2.1084  83.0110 0005063 185.4181  36.6416  1.00270849 65891"}}, "geometry": {"type": "Point", "coordinates": [138.28869677790692, 1.7450312138783615]}}, {"type": "Feature", "properties": {"norad_id": 32729, "name": "DIRECTV 11", "group": "intelsat", "lat": 0.0001270396457430519, "lon": 112.92135911765577, "alt_km": 35786.09978125005, "timestamp": "2025-12-08T08:59:00.439679+00:00", "meta": {"OBJECT_NAME": "DIRECTV 11", "OBJECT_ID": "2008-013A", "EPOCH": "2025-12-07T20:00:44.370432", "MEAN_MOTION": 1.00269303, "ECCENTRICITY": 5.914e-05, "INCLINATION": 0.0132, "RA_OF_ASC_NODE": 219.1388, "ARG_OF_PERICENTER": 327.4216, "MEAN_ANOMALY": 91.2778, "EPHEMERIS_TYPE": 0, "CLASSIFICATION_TYPE": "U", "NORAD_CAT_ID": 32729, "ELEMENT_SET_NO": 999, "REV_AT_EPOCH": 4367, "BSTAR": 0, "MEAN_MOTION_DOT": -1.22e-06, "MEAN_MOTION_DDOT": 0}, "tle": {"line1": "1 32729U 08013A   25341.83384688 -.00000122  00000+0  00000+0 0  9992", "line2": "2 32729   0.0132 219.1388 0000591 327.4216  91.2778  1.00269303 43671"}}, "geometry": {"type": "Point", "coordinates": [112.92135911765577, 0.0001270396457430519]}}, {"type": "Feature", "properties": {"norad_id": 32951, "name": "GALAXY 18 (G-18)", "group": "intelsat", "lat": 0.02563854938826034, "lon": 89.10799646666429, "alt_km": 35800.33245926085, "timestamp": "2025-12-08T08:59:00.439691+00:00", "meta": {"OBJECT_NAME": "GALAXY 18 (G-18)", "OBJECT_ID": "2008-024A", "EPOCH": "2025-12-07T14:45:38.501280", "MEAN_MOTION": 1.00270269, "ECCENTRICITY": 0.00033137, "INCLINATION": 0.0216, "RA_OF_ASC_NODE": 58.2421, "ARG_OF_PERICENTER": 202.2004, "MEAN_ANOMALY": 274.5904, "EPHEMERIS_TYPE": 0, "CLASSIFICATION_TYPE": "U", "NORAD_CAT_ID": 32951, "ELEMENT_SET_NO": 999, "REV_AT_EPOCH": 4393, "BSTAR": 0, "MEAN_MOTION_DOT": 2.9e-07, "MEAN_MOTION_DDOT": 0}, "tle": {"line1": "1 32951U 08024A   25341.61502895  .00000029  00000+0  00000+0 0  9994", "line2": "2 32951   0.0216  58.2421 0003313 202.2004 274.5904  1.00270269 43930"}}, "geometry": {"type": "Point", "coordinates": [89.10799646666429, 0.02563854938826034]}}]}